NORAD_CAT_ID,OBJECT_NAME,OBJECT_TYPE,EPOCH,MEAN_MOTION,ECCENTRICITY,INCLINATION,RA_OF_ASC_NODE,ARG_OF_PERICENTER,MEAN_ANOMALY,BSTAR,MEAN_MOTION_DOT,MEAN_MOTION_DDOT,TLE_LINE0,TLE_LINE1,TLE_LINE2,SEMIMAJOR_AXIS,PERIOD,APOGEE,PERIGEE,DECAYED
53545.0,STARLINK-4475,PAYLOAD,2022-10-14 14:00:01,15.35914113,0.000133,53.2175,241.3568,72.53699999999998,163.9559,-0.0329389999999999,-0.01071964,0.0,0 STARLINK-4475,1 53545U 22101U   22287.58334491 -.01071964  00000-0 -32939-1 0  9993,2 53545  53.2175 241.3568 0001330  72.5370 163.9559 15.35914113  1302,6836.344,93.755,459.11800000000005,457.299,0.0
53545.0,STARLINK-4475,PAYLOAD,2022-10-14 22:00:00,15.351525400000002,0.0001281,53.2176,239.795,76.7646,203.3906,-0.033599,-0.01067324,0.0,0 STARLINK-4475,1 53545U 22101U   22287.91667824 -.01067324  00000-0 -33599-1 0  9997,2 53545  53.2176 239.7950 0001281  76.7646 203.3906 15.35152540  1309,6838.604,93.802,461.345,459.593,0.0
53545.0,STARLINK-4475,PAYLOAD,2022-10-15 06:00:00,15.34393339,0.000145,53.2176,238.2374,48.784,274.1191,-0.034463,-0.0106838,0.0,0 STARLINK-4475,1 53545U 22101U   22288.25001157 -.01068380  00000-0 -34463-1 0  9990,2 53545  53.2176 238.2374 0001450  48.7840 274.1191 15.34393339  8868,6840.86,93.848,463.717,461.733,0.0
53545.0,STARLINK-4475,PAYLOAD,2022-10-15 14:00:01,15.33634411,0.0001231999999999,53.2175,236.678,58.6228,306.1176,-0.035368,-0.01070002,0.0,0 STARLINK-4475,1 53545U 22101U   22288.58334491 -.01070002  00000-0 -35368-1 0  9995,2 53545  53.2175 236.6780 0001232  58.6228 306.1176 15.33634411  1307,6843.1169999999975,93.895,465.825,464.139,0.0
53545.0,STARLINK-4475,PAYLOAD,2022-10-15 22:00:01,15.32873856,0.0001306,53.2176,235.1218,57.9786,347.7495,-0.036135,-0.01067362,0.0,0 STARLINK-4475,1 53545U 22101U   22288.91668981 -.01067362  00000-0 -36135-1 0  9994,2 53545  53.2176 235.1218 0001306  57.9786 347.7495 15.32873856  1303,6845.38,93.941,468.139,466.351,0.0
53545.0,STARLINK-4475,PAYLOAD,2022-10-16 06:00:00,15.32113326,0.0001657,53.2176,233.5694,41.8137,43.8611,-0.0369699999999999,-0.01066263,0.0,0 STARLINK-4475,1 53545U 22101U   22289.25001157 -.01066263  00000-0 -36970-1 0  9994,2 53545  53.2176 233.5694 0001657  41.8137  43.8611 15.32113326  9024,6847.645,93.988,470.645,468.376,0.0
53545.0,STARLINK-4475,PAYLOAD,2022-10-16 14:00:01,15.31354052,0.0001396999999999,53.2175,232.0154,60.0684,64.7055,-0.037863,-0.0106619,0.0,0 STARLINK-4475,1 53545U 22101U   22289.58334491 -.01066190  00000-0 -37863-1 0  9991,2 53545  53.2175 232.0154 0001397  60.0684  64.7055 15.31354052  1308,6849.908,94.034,472.73,470.817,0.0
53545.0,STARLINK-4475,PAYLOAD,2022-10-16 22:00:00,15.30594102,0.0001453999999999,53.2178,230.4649,64.0639,98.8957,-0.038733,-0.01065148,0.0,0 STARLINK-4475,1 53545U 22101U   22289.91667824 -.01065148  00000-0 -38733-1 0  9996,2 53545  53.2178 230.4649 0001454  64.0639  98.8957 15.30594102  1300,6852.176,94.081,475.037,473.044,0.0
53545.0,STARLINK-4475,PAYLOAD,2022-10-17 06:00:00,15.29832434,0.0001626999999999,53.2176,228.9176,52.3741,147.8583,-0.03951,-0.01061401,0.0,0 STARLINK-4475,1 53545U 22101U   22290.25001157 -.01061401  00000-0 -39510-1 0  9998,2 53545  53.2176 228.9176 0001627  52.3741 147.8583 15.29832434  9175,6854.45,94.128,477.43,475.2,0.0
53545.0,STARLINK-4475,PAYLOAD,2022-10-17 14:00:01,15.29076079,0.0001548,53.2176,227.3689,52.1017,184.4909,-0.040658,-0.01066451,0.0,0 STARLINK-4475,1 53545U 22101U   22290.58334491 -.01066451  00000-0 -40658-1 0  9999,2 53545  53.2176 227.3689 0001548  52.1017 184.4909 15.29076079  1304,6856.71,94.175,479.636,477.514,0.0
53545.0,STARLINK-4475,PAYLOAD,2022-10-17 22:00:00,15.28315905,0.000136,53.2177,225.8239,67.3432,204.697,-0.041563,-0.01064991,0.0,0 STARLINK-4475,1 53545U 22101U   22290.91667824 -.01064991  00000-0 -41563-1 0  9998,2 53545  53.2177 225.8239 0001360  67.3432 204.6970 15.28315905  1306,6858.983,94.221,481.781,479.916,0.0
53545.0,STARLINK-4475,PAYLOAD,2022-10-18 06:00:00,15.2755478,0.000133,53.2175,224.282,61.808,244.7669,-0.042424,-0.0106217,0.0,0 STARLINK-4475,1 53545U 22101U   22291.25001157 -.01062170  00000-0 -42424-1 0  9991,2 53545  53.2175 224.2820 0001330  61.8080 244.7669 15.27554780  9323,6861.262,94.268,484.039,482.214,0.0
53545.0,STARLINK-4475,PAYLOAD,2022-10-18 14:00:01,15.26797114,0.0001269,53.2175,222.7386,58.5484,281.6494,-0.043586,-0.01065918,0.0,0 STARLINK-4475,1 53545U 22101U   22291.58334491 -.01065918  00000-0 -43586-1 0  9990,2 53545  53.2175 222.7386 0001269  58.5484 281.6494 15.26797114  1300,6863.531,94.315,486.267,484.525,0.0
53545.0,STARLINK-4475,PAYLOAD,2022-10-18 22:00:00,15.26038568,0.0001428,53.2177,221.1991,48.6648,324.2419,-0.04465,-0.01066952,0.0,0 STARLINK-4475,1 53545U 22101U   22291.91667824 -.01066952  00000-0 -44650-1 0  9998,2 53545  53.2177 221.1991 0001428  48.6648 324.2419 15.26038568  1308,6865.806,94.362,488.651,486.69,0.0
53545.0,STARLINK-4475,PAYLOAD,2022-10-19 06:00:00,15.25276497,0.0001398,53.2168,219.6634,54.945,349.7583,-0.0454959999999999,-0.01062719,0.0,0 STARLINK-4475,1 53545U 22101U   22292.25001157 -.01062719  00000-0 -45496-1 0  9993,2 53545  53.2168 219.6634 0001398  54.9450 349.7583 15.25276497  9486,6868.092,94.409,490.917,488.997,0.0
53545.0,STARLINK-4475,PAYLOAD,2022-10-19 14:00:01,15.24517138,0.0001324,53.2175,218.1242,58.9198,16.6697,-0.046583,-0.0106339,0.0,0 STARLINK-4475,1 53545U 22101U   22292.58334491 -.01063390  00000-0 -46583-1 0  9993,2 53545  53.2175 218.1242 0001324  58.9198  16.6697 15.24517138  1303,6870.373000000001,94.456,493.147,491.328,0.0
53545.0,STARLINK-4475,PAYLOAD,2022-10-19 22:00:00,15.23759199,0.0001639,53.2176,216.5903,45.7517,59.8084,-0.047769,-0.01065775,0.0,0 STARLINK-4475,1 53545U 22101U   22292.91667824 -.01065775  00000-0 -47769-1 0  9995,2 53545  53.2176 216.5903 0001639  45.7517  59.8084 15.23759199  1301,6872.651,94.503,495.642,493.389,0.0
53545.0,STARLINK-4475,PAYLOAD,2022-10-20 06:00:00,15.22995229,0.0001696,53.2173,215.0587,45.9537,88.6663,-0.048485,-0.01058027,0.0,0 STARLINK-4475,1 53545U 22101U   22293.25001157 -.01058027  00000-0 -48485-1 0  9992,2 53545  53.2173 215.0587 0001696  45.9537  88.6663 15.22995229  9639,6874.949000000001,94.551,497.98,495.648,0.0
53545.0,STARLINK-4475,PAYLOAD,2022-10-20 14:00:01,15.22237863,0.0001426999999999,53.2174,213.526,65.5821,97.1845,-0.049769,-0.01061471,0.0,0 STARLINK-4475,1 53545U 22101U   22293.58334491 -.01061471  00000-0 -49769-1 0  9991,2 53545  53.2174 213.5260 0001427  65.5821  97.1845 15.22237863  1303,6877.229,94.598,500.076,498.11300000000006,0.0
53545.0,STARLINK-4475,PAYLOAD,2022-10-20 22:00:00,15.21479185,0.0001478,53.2177,211.9976,66.8605,123.139,-0.050974,-0.01062886,0.0,0 STARLINK-4475,1 53545U 22101U   22293.91667824 -.01062886  00000-0 -50974-1 0  9998,2 53545  53.2177 211.9976 0001478  66.8605 123.1390 15.21479185  1301,6879.515,94.645,502.397,500.36300000000006,0.0
53545.0,STARLINK-4475,PAYLOAD,2022-10-21 06:00:00,15.20717012,0.0001494,53.2173,210.4712,62.3317,153.989,-0.051861,-0.01057798,0.0,0 STARLINK-4475,1 53545U 22101U   22294.25001157 -.01057798  00000-0 -51861-1 0  9999,2 53545  53.2173 210.4712 0001494  62.3317 153.9890 15.20717012  9787,6881.814,94.692,504.707,502.65,0.0
53545.0,STARLINK-4475,PAYLOAD,2022-10-21 14:00:01,15.19958751,0.0001476,53.2174,208.9437,58.9715,182.7584,-0.053149,-0.01059991,0.0,0 STARLINK-4475,1 53545U 22101U   22294.58334491 -.01059991  00000-0 -53149-1 0  9993,2 53545  53.2174 208.9437 0001476  58.9715 182.7584 15.19958751  1302,6884.102,94.739,506.983,504.951,0.0
53545.0,STARLINK-4475,PAYLOAD,2022-10-21 22:00:00,15.19207216,0.0001426999999999,53.2167,207.4215,63.5407,202.6801,-0.0549659999999999,-0.01085009,0.0,0 STARLINK-4475,1 53545U 22101U   22294.91667824 -.01085009  00000-0 -54966-1 0  9996,2 53545  53.2167 207.4215 0001427  63.5407 202.6801 15.19207216  1305,6886.371999999999,94.786,509.22,507.255,0.0
53545.0,STARLINK-4475,PAYLOAD,2022-10-22 14:00:01,15.17679359,0.0001281,53.2174,204.3775,65.8536,246.6256,-0.056713,-0.01071913,0.0,0 STARLINK-4475,1 53545U 22101U   22295.58334491 -.01071913  00000-0 -56713-1 0  9992,2 53545  53.2174 204.3775 0001281  65.8536 246.6256 15.17679359  1307,6890.993,94.882,513.741,511.975,0.0
53545.0,STARLINK-4475,PAYLOAD,2022-10-22 22:00:00,15.16935952,0.0001291999999999,53.2165,202.8609,66.7762,267.4519,-0.059289,-0.01095004,0.0,0 STARLINK-4475,1 53545U 22101U   22295.91667824 -.01095004  00000-0 -59289-1 0  9996,2 53545  53.2165 202.8609 0001292  66.7762 267.4519 15.16935952 10046,6893.244000000002,94.928,516.0,514.219,0.0
53545.0,STARLINK-4475,PAYLOAD,2022-10-23 14:00:01,15.15400476,0.0001233,53.2173,199.8271,65.3257,309.6888,-0.060519,-0.0107142,0.0,0 STARLINK-4475,1 53545U 22101U   22296.58334491 -.01071420  00000-0 -60519-1 0  9995,2 53545  53.2173 199.8271 0001233  65.3257 309.6888 15.15400476  1308,6897.9,95.024,520.616,518.915,0.0
53545.0,STARLINK-4475,PAYLOAD,2022-10-23 22:00:00,15.14649914,0.0001385,53.2167,198.3158,56.4979,337.5312,-0.062657,-0.01084788,0.0,0 STARLINK-4475,1 53545U 22101U   22296.91667824 -.01084788  00000-0 -62657-1 0  9997,2 53545  53.2167 198.3158 0001385  56.4979 337.5312 15.14649914  1302,6900.179,95.071,522.999,521.0880000000002,0.0
53545.0,STARLINK-4475,PAYLOAD,2022-10-24 06:00:00,15.13883666,0.0001318,53.2172,196.8042,62.7891,349.3499,-0.063344,-0.01073944,0.0,0 STARLINK-4475,1 53545U 22101U   22297.25001157 -.01073944  00000-0 -63344-1 0  9992,2 53545  53.2172 196.8042 0001318  62.7891 349.3499 15.13883666 10245,6902.507,95.12,525.281,523.462,0.0
53545.0,STARLINK-4475,PAYLOAD,2022-10-24 14:00:01,15.13122505,0.0001375999999999,53.2173,195.2927,58.0076,11.3279,-0.064619,-0.01072395,0.0,0 STARLINK-4475,1 53545U 22101U   22297.58334491 -.01072395  00000-0 -64619-1 0  9993,2 53545  53.2173 195.2927 0001376  58.0076  11.3279 15.13122505  1305,6904.821,95.167,527.636,525.736,0.0
